*******************************************************************************
Ephemeris / WWW_USER Sun Dec 18 19:07:33 2016 Pasadena, USA      / Horizons    
*******************************************************************************
Target body name: Moon (301)                      {source: DE431mx}
Center body name: Earth (399)                     {source: DE431mx}
Center-site name: (user defined site below)
*******************************************************************************
Start time      : A.D. 2019-Dec-01 00:00:00.0000 UT      
Stop  time      : A.D. 2020-Apr-02 00:00:00.0000 UT      
Step-size       : 2 minutes
*******************************************************************************
Target pole/equ : IAU_MOON                        {East-longitude +}
Target radii    : 1737.4 x 1737.4 x 1737.4 km     {Equator, meridian, pole}    
Center geodetic : 241.855000,34.1456000,0.0000000 {E-lon(deg),Lat(deg),Alt(km)}
Center cylindric: 241.855000,5284.21009,3559.8244 {E-lon(deg),Dxy(km),Dz(km)}
Center pole/equ : High-precision EOP model        {East-longitude +}
Center radii    : 6378.1 x 6378.1 x 6356.8 km     {Equator, meridian, pole}    
Target primary  : Earth
Vis. interferer : MOON (R_eq= 1737.400) km        {source: DE431mx}
Rel. light bend : Sun, EARTH                      {source: DE431mx}
Rel. lght bnd GM: 1.3271E+11, 3.9860E+05 km^3/s^2                              
Atmos refraction: NO (AIRLESS)
RA format       : HMS
Time format     : CAL 
RTS-only print  : NO       
EOP file        : eop.161216.p170309                                           
EOP coverage    : DATA-BASED 1962-JAN-20 TO 2016-DEC-16. PREDICTS-> 2017-MAR-08
Units conversion: 1 au= 149597870.700 km, c= 299792.458 km/s, 1 day= 86400.0 s 
Table cut-offs 1: Elevation (-90.0deg=NO ),Airmass (>38.000=NO), Daylight (NO )
Table cut-offs 2: Solar Elongation (  0.0,180.0=NO ),Local Hour Angle( 0.0=NO )
*******************************************************************************
 Date__(UT)__HR:MN     Azi_(a-appr)_Elev
****************************************
$$SOE
 2020-Jan-30 00:00 *m  185.0067  52.8191
 2020-Jan-30 00:02 *m  185.8190  52.7871
 2020-Jan-30 00:04 *m  186.6299  52.7494
 2020-Jan-30 00:06 *m  187.4393  52.7060
 2020-Jan-30 00:08 *m  188.2470  52.6569
 2020-Jan-30 00:10 *m  189.0527  52.6021
 2020-Jan-30 00:12 *m  189.8563  52.5416
 2020-Jan-30 00:14 *m  190.6574  52.4755
 2020-Jan-30 00:16 *m  191.4561  52.4037
 2020-Jan-30 00:18 *m  192.2519  52.3265
 2020-Jan-30 00:20 *m  193.0449  52.2436
 2020-Jan-30 00:22 *m  193.8347  52.1553
 2020-Jan-30 00:24 *m  194.6212  52.0616
 2020-Jan-30 00:26 *m  195.4043  51.9624
 2020-Jan-30 00:28 *m  196.1837  51.8578
 2020-Jan-30 00:30 *m  196.9593  51.7479
 2020-Jan-30 00:32 *m  197.7310  51.6328
 2020-Jan-30 00:34 *m  198.4986  51.5124
 2020-Jan-30 00:36 *m  199.2620  51.3868
 2020-Jan-30 00:38 *m  200.0210  51.2561
 2020-Jan-30 00:40 *m  200.7755  51.1203
 2020-Jan-30 00:42 *m  201.5255  50.9796
 2020-Jan-30 00:44 *m  202.2707  50.8338
 2020-Jan-30 00:46 *m  203.0110  50.6832
 2020-Jan-30 00:48 *m  203.7465  50.5277
 2020-Jan-30 00:50 *m  204.4769  50.3674
 2020-Jan-30 00:52 *m  205.2022  50.2023
 2020-Jan-30 00:54 *m  205.9223  50.0327
 2020-Jan-30 00:56 *m  206.6371  49.8584
 2020-Jan-30 00:58 *m  207.3466  49.6795
 2020-Jan-30 01:00 *m  208.0507  49.4962
 2020-Jan-30 01:02 *m  208.7494  49.3085
 2020-Jan-30 01:04 *m  209.4426  49.1164
 2020-Jan-30 01:06 *m  210.1302  48.9200
 2020-Jan-30 01:08 *m  210.8122  48.7194
 2020-Jan-30 01:10 *m  211.4886  48.5146
 2020-Jan-30 01:12 *m  212.1593  48.3057
 2020-Jan-30 01:14 *m  212.8244  48.0928
 2020-Jan-30 01:16 *m  213.4838  47.8759
 2020-Jan-30 01:18 *m  214.1375  47.6551
 2020-Jan-30 01:20 Cm  214.7855  47.4305
 2020-Jan-30 01:22 Cm  215.4278  47.2020
 2020-Jan-30 01:24 Cm  216.0644  46.9699
 2020-Jan-30 01:26 Cm  216.6952  46.7341
 2020-Jan-30 01:28 Cm  217.3204  46.4947
 2020-Jan-30 01:30 Cm  217.9399  46.2517
 2020-Jan-30 01:32 Cm  218.5537  46.0053
 2020-Jan-30 01:34 Cm  219.1619  45.7555
 2020-Jan-30 01:36 Cm  219.7645  45.5024
 2020-Jan-30 01:38 Cm  220.3614  45.2459
 2020-Jan-30 01:40 Cm  220.9528  44.9862
 2020-Jan-30 01:42 Cm  221.5387  44.7234
 2020-Jan-30 01:44 Cm  222.1190  44.4574
 2020-Jan-30 01:46 Cm  222.6939  44.1884
 2020-Jan-30 01:48 Nm  223.2634  43.9163
 2020-Jan-30 01:50 Nm  223.8275  43.6414
 2020-Jan-30 01:52 Nm  224.3862  43.3635
 2020-Jan-30 01:54 Nm  224.9397  43.0828
 2020-Jan-30 01:56 Nm  225.4879  42.7994
 2020-Jan-30 01:58 Nm  226.0309  42.5132
 2020-Jan-30 02:00 Nm  226.5687  42.2243
 2020-Jan-30 02:02 Nm  227.1015  41.9328
 2020-Jan-30 02:04 Nm  227.6292  41.6388
 2020-Jan-30 02:06 Nm  228.1519  41.3422
 2020-Jan-30 02:08 Nm  228.6697  41.0432
 2020-Jan-30 02:10 Nm  229.1826  40.7417
 2020-Jan-30 02:12 Nm  229.6907  40.4378
 2020-Jan-30 02:14 Nm  230.1940  40.1317
 2020-Jan-30 02:16 Nm  230.6926  39.8232
 2020-Jan-30 02:18 Am  231.1866  39.5125
 2020-Jan-30 02:20 Am  231.6759  39.1997
 2020-Jan-30 02:22 Am  232.1608  38.8846
 2020-Jan-30 02:24 Am  232.6411  38.5675
 2020-Jan-30 02:26 Am  233.1171  38.2483
 2020-Jan-30 02:28 Am  233.5886  37.9271
 2020-Jan-30 02:30 Am  234.0559  37.6039
 2020-Jan-30 02:32 Am  234.5190  37.2788
 2020-Jan-30 02:34 Am  234.9779  36.9518
 2020-Jan-30 02:36 Am  235.4327  36.6229
 2020-Jan-30 02:38 Am  235.8834  36.2922
 2020-Jan-30 02:40 Am  236.3302  35.9598
 2020-Jan-30 02:42 Am  236.7730  35.6255
 2020-Jan-30 02:44 Am  237.2119  35.2896
 2020-Jan-30 02:46  m  237.6470  34.9520
 2020-Jan-30 02:48  m  238.0784  34.6128
 2020-Jan-30 02:50  m  238.5060  34.2719
 2020-Jan-30 02:52  m  238.9301  33.9295
 2020-Jan-30 02:54  m  239.3505  33.5855
 2020-Jan-30 02:56  m  239.7674  33.2401
 2020-Jan-30 02:58  m  240.1809  32.8931
 2020-Jan-30 03:00  m  240.5910  32.5448
 2020-Jan-30 03:02  m  240.9977  32.1950
 2020-Jan-30 03:04  m  241.4011  31.8438
 2020-Jan-30 03:06  m  241.8013  31.4913
 2020-Jan-30 03:08  m  242.1983  31.1374
 2020-Jan-30 03:10  m  242.5921  30.7823
 2020-Jan-30 03:12  m  242.9829  30.4259
 2020-Jan-30 03:14  m  243.3707  30.0682
 2020-Jan-30 03:16  m  243.7555  29.7094
 2020-Jan-30 03:18  m  244.1373  29.3493
 2020-Jan-30 03:20  m  244.5163  28.9881
 2020-Jan-30 03:22  m  244.8926  28.6258
 2020-Jan-30 03:24  m  245.2660  28.2623
 2020-Jan-30 03:26  m  245.6367  27.8978
 2020-Jan-30 03:28  m  246.0048  27.5322
 2020-Jan-30 03:30  m  246.3702  27.1655
 2020-Jan-30 03:32  m  246.7331  26.7979
 2020-Jan-30 03:34  m  247.0935  26.4292
 2020-Jan-30 03:36  m  247.4514  26.0596
 2020-Jan-30 03:38  m  247.8069  25.6890
 2020-Jan-30 03:40  m  248.1600  25.3175
 2020-Jan-30 03:42  m  248.5108  24.9451
 2020-Jan-30 03:44  m  248.8593  24.5718
 2020-Jan-30 03:46  m  249.2056  24.1977
 2020-Jan-30 03:48  m  249.5497  23.8227
 2020-Jan-30 03:50  m  249.8916  23.4468
 2020-Jan-30 03:52  m  250.2314  23.0702
 2020-Jan-30 03:54  m  250.5692  22.6928
 2020-Jan-30 03:56  m  250.9049  22.3146
 2020-Jan-30 03:58  m  251.2387  21.9357
 2020-Jan-30 04:00  m  251.5705  21.5560
 2020-Jan-30 04:02  m  251.9005  21.1756
 2020-Jan-30 04:04  m  252.2286  20.7945
 2020-Jan-30 04:06  m  252.5548  20.4128
 2020-Jan-30 04:08  m  252.8793  20.0304
 2020-Jan-30 04:10  m  253.2021  19.6473
 2020-Jan-30 04:12  m  253.5231  19.2636
 2020-Jan-30 04:14  m  253.8426  18.8793
 2020-Jan-30 04:16  m  254.1603  18.4944
 2020-Jan-30 04:18  m  254.4765  18.1089
 2020-Jan-30 04:20  m  254.7912  17.7228
 2020-Jan-30 04:22  m  255.1044  17.3362
 2020-Jan-30 04:24  m  255.4160  16.9490
 2020-Jan-30 04:26  m  255.7263  16.5614
 2020-Jan-30 04:28  m  256.0351  16.1732
 2020-Jan-30 04:30  m  256.3426  15.7845
 2020-Jan-30 04:32  m  256.6488  15.3954
 2020-Jan-30 04:34  m  256.9536  15.0057
 2020-Jan-30 04:36  m  257.2572  14.6157
 2020-Jan-30 04:38  m  257.5596  14.2251
 2020-Jan-30 04:40  m  257.8608  13.8342
 2020-Jan-30 04:42  m  258.1608  13.4428
 2020-Jan-30 04:44  m  258.4597  13.0511
 2020-Jan-30 04:46  m  258.7575  12.6590
 2020-Jan-30 04:48  m  259.0542  12.2664
 2020-Jan-30 04:50  m  259.3499  11.8736
 2020-Jan-30 04:52  m  259.6446  11.4803
 2020-Jan-30 04:54  m  259.9383  11.0868
 2020-Jan-30 04:56  m  260.2311  10.6929
 2020-Jan-30 04:58  m  260.5230  10.2987
 2020-Jan-30 05:00  m  260.8140   9.9042
 2020-Jan-30 05:02  m  261.1042   9.5094
 2020-Jan-30 05:04  m  261.3935   9.1143
 2020-Jan-30 05:06  m  261.6821   8.7189
 2020-Jan-30 05:08  m  261.9699   8.3233
 2020-Jan-30 05:10  m  262.2570   7.9275
 2020-Jan-30 05:12  m  262.5434   7.5314
 2020-Jan-30 05:14  m  262.8291   7.1351
 2020-Jan-30 05:16  m  263.1142   6.7386
 2020-Jan-30 05:18  m  263.3987   6.3419
 2020-Jan-30 05:20  m  263.6826   5.9450
 2020-Jan-30 05:22  m  263.9660   5.5479
 2020-Jan-30 05:24  m  264.2488   5.1506
 2020-Jan-30 05:26  m  264.5312   4.7532
 2020-Jan-30 05:28  m  264.8131   4.3556
 2020-Jan-30 05:30  m  265.0945   3.9579
 2020-Jan-30 05:32  m  265.3756   3.5601
 2020-Jan-30 05:34  m  265.6562   3.1621
 2020-Jan-30 05:36  m  265.9365   2.7641
 2020-Jan-30 05:38  m  266.2165   2.3659
 2020-Jan-30 05:40  m  266.4962   1.9676
 2020-Jan-30 05:42  m  266.7756   1.5693
 2020-Jan-30 05:44  m  267.0548   1.1709
 2020-Jan-30 05:46  m  267.3337   0.7724
 2020-Jan-30 05:48  m  267.6125   0.3739
 2020-Jan-30 05:50  m  267.8911  -0.0246
 2020-Jan-30 05:52  m  268.1696  -0.4232
 2020-Jan-30 05:54  s  268.4480  -0.8218
 2020-Jan-30 05:56     268.7262  -1.2204
 2020-Jan-30 05:58     269.0045  -1.6190
 2020-Jan-30 06:00     269.2827  -2.0176
 2020-Jan-30 06:02     269.5609  -2.4162
 2020-Jan-30 06:04     269.8392  -2.8147
 2020-Jan-30 06:06     270.1175  -3.2133
 2020-Jan-30 06:08     270.3959  -3.6117
 2020-Jan-30 06:10     270.6744  -4.0101
 2020-Jan-30 06:12     270.9531  -4.4085
 2020-Jan-30 06:14     271.2319  -4.8068
 2020-Jan-30 06:16     271.5109  -5.2049
 2020-Jan-30 06:18     271.7902  -5.6030
 2020-Jan-30 06:20     272.0697  -6.0010
 2020-Jan-30 06:22     272.3494  -6.3989
